{
    "links": {
        "self": "http://www.neowsapp.com/rest/v1/neo/3459656?api_key=iIulBulltgU6a56xZRHN4H3l9WmuAYTsLGpBGhQ2"
    },
    "id": "3459656",
    "neo_reference_id": "3459656",
    "name": "(2009 JG2)",
    "designation": "2009 JG2",
    "nasa_jpl_url": "http://ssd.jpl.nasa.gov/sbdb.cgi?sstr=3459656",
    "absolute_magnitude_h": 22.6,
    "estimated_diameter": {
        "kilometers": {
            "estimated_diameter_min": 0.0802703167,
            "estimated_diameter_max": 0.1794898848
        },
        "meters": {
            "estimated_diameter_min": 80.2703167283,
            "estimated_diameter_max": 179.4898847799
        },
        "miles": {
            "estimated_diameter_min": 0.049877647,
            "estimated_diameter_max": 0.1115298092
        },
        "feet": {
            "estimated_diameter_min": 263.3540659348,
            "estimated_diameter_max": 588.8775935812
        }
    },
    "is_potentially_hazardous_asteroid": false,
    "close_approach_data": [
        {
            "close_approach_date": "1971-11-18",
            "close_approach_date_full": "1971-Nov-18 00:04",
            "epoch_date_close_approach": 59270640000,
            "relative_velocity": {
                "kilometers_per_second": "32.2585016531",
                "kilometers_per_hour": "116130.6059511258",
                "miles_per_hour": "72159.0423477981"
            },
            "miss_distance": {
                "astronomical": "0.469376881",
                "lunar": "182.587606709",
                "kilometers": "70217781.62484347",
                "miles": "43631306.291121086"
            },
            "orbiting_body": "Earth"
        },
        {
            "close_approach_date": "2009-05-19",
            "close_approach_date_full": "2009-May-19 21:42",
            "epoch_date_close_approach": 1242769320000,
            "relative_velocity": {
                "kilometers_per_second": "17.8318074681",
                "kilometers_per_hour": "64194.5068851168",
                "miles_per_hour": "39887.970125366"
            },
            "miss_distance": {
                "astronomical": "0.0297906588",
                "lunar": "11.5885662732",
                "kilometers": "4456619.102376756",
                "miles": "2769214.7000249928"
            },
            "orbiting_body": "Earth"
        }
    ],
    "orbital_data": {
        "orbit_id": "15",
        "orbit_determination_date": "2017-04-06 09:00:35",
        "first_observation_date": "2009-04-27",
        "last_observation_date": "2009-05-20",
        "data_arc_in_days": 23,
        "observations_used": 124,
        "orbit_uncertainty": "8",
        "minimum_orbit_intersection": ".000113807",
        "jupiter_tisserand_invariant": "3.499",
        "epoch_osculation": "2454963.5",
        "eccentricity": ".6591268990997521",
        "semi_major_axis": "2.032060198124514",
        "inclination": "2.730277669717773",
        "ascending_node_longitude": "211.9979600421301",
        "orbital_period": "1058.042909256106",
        "perihelion_distance": ".6926746609506753",
        "perihelion_argument": "103.7043919009246",
        "aphelion_distance": "3.371445735298353",
        "perihelion_time": "2455018.051599676671",
        "mean_anomaly": "341.4387718004659",
        "mean_motion": ".3402508507458461",
        "equinox": "J2000",
        "orbit_class": {
            "orbit_class_type": "APO",
            "orbit_class_description": "Near-Earth asteroid orbits which cross the Earth’s orbit similar to that of 1862 Apollo",
            "orbit_class_range": "a (semi-major axis) > 1.0 AU; q (perihelion) < 1.017 AU"
        }
    },
    "is_sentry_object": false
}